[{"OBJECT_NAME":"YAOGAN-35 05C","OBJECT_ID":"2022-109D","EPOCH":"2026-03-09T23:24:49.254048","MEAN_MOTION":15.2196891,"ECCENTRICITY":0.00028309,"INCLINATION":34.9905,"RA_OF_ASC_NODE":260.7893,"ARG_OF_PERICENTER":75.4847,"MEAN_ANOMALY":284.6181,"EPHEMERIS_TYPE":0,"CLASSIFICATION_TYPE":"U","NORAD_CAT_ID":53763,"ELEMENT_SET_NO":999,"REV_AT_EPOCH":19524,"BSTAR":0.00045958493,"MEAN_MOTION_DOT":0.00010718,"MEAN_MOTION_DDOT":0},{"OBJECT_NAME":"STARLINK-35738","OBJECT_ID":"2025-299Q","EPOCH":"2026-03-09T08:00:01.000224","MEAN_MOTION":15.40394704,"ECCENTRICITY":0.00013093,"INCLINATION":43.0009,"RA_OF_ASC_NODE":170.8346,"ARG_OF_PERICENTER":273.8044,"MEAN_ANOMALY":91.1615,"EPHEMERIS_TYPE":0,"CLASSIFICATION_TYPE":"U","NORAD_CAT_ID":67116,"ELEMENT_SET_NO":999,"REV_AT_EPOCH":592,"BSTAR":-0.056764549,"MEAN_MOTION_DOT":-0.02079847,"MEAN_MOTION_DDOT":0}]
